{
  "type": "FeatureCollection",
  "features": [
    {
      "type": "Feature",
      "properties": {
        "norad_id": 59600,
        "name": "GSAT0227 (GALILEO 30)",
        "group": "galileo",
        "lat": 8.845772396532308,
        "lon": 112.31651904133888,
        "alt_km": 23223.56764825073,
        "timestamp": "2025-12-20T16:47:36.549901+00:00",
        "meta_object_name": "GSAT0227 (GALILEO 30)",
        "meta_object_id": "2024-079C",
        "meta_epoch": "2025-12-19T12:12:51.636672",
        "meta_mean_motion": 1.70474897,
        "meta_eccentricity": 0.0002924,
        "meta_inclination": 55.0006,
        "meta_ra_of_asc_node": 106.105,
        "meta_arg_of_pericenter": 116.8359,
        "meta_mean_anomaly": 243.1562,
        "meta_ephemeris_type": 0,
        "meta_classification_type": "U",
        "meta_norad_cat_id": 59600,
        "meta_element_set_no": 999,
        "meta_rev_at_epoch": 1030,
        "meta_bstar": 0,
        "meta_mean_motion_dot": -6e-08,
        "meta_mean_motion_ddot": 0,
        "tle_line1": "1 59600U 24079C   25353.50893098 -.00000006  00000+0  00000+0 0  9997",
        "tle_line2": "2 59600  55.0006 106.1050 0002924 116.8359 243.1562  1.70474897 10305"
      },
      "geometry": {
        "type": "Point",
        "coordinates": [
          112.31651904133888,
          8.845772396532308
        ]
      }
    },
    {
      "type": "Feature",
      "properties": {
        "norad_id": 61182,
        "name": "GSAT0232 (GALILEO 32)",
        "group": "galileo",
        "lat": -20.516997143532702,
        "lon": 61.28318687828541,
        "alt_km": 23219.45298205122,
        "timestamp": "2025-12-20T16:47:36.549912+00:00",
        "meta_object_name": "GSAT0232 (GALILEO 32)",
        "meta_object_id": "2024-167A",
        "meta_epoch": "2025-12-20T01:45:16.724736",
        "meta_mean_motion": 1.70473657,
        "meta_eccentricity": 0.00018786,
        "meta_inclination": 55.2386,
        "meta_ra_of_asc_node": 226.2297,
        "meta_arg_of_pericenter": 206.8342,
        "meta_mean_anomaly": 333.9154,
        "meta_ephemeris_type": 0,
        "meta_classification_type": "U",
        "meta_norad_cat_id": 61182,
        "meta_element_set_no": 999,
        "meta_rev_at_epoch": 782,
        "meta_bstar": 0,
        "meta_mean_motion_dot": 7e-07,
        "meta_mean_motion_ddot": 0,
        "tle_line1": "1 61182U 24167A   25354.07311024  .00000070  00000+0  00000+0 0  9990",
        "tle_line2": "2 61182  55.2386 226.2297 0001878 206.8342 333.9154  1.70473657  7823"
      },
      "geometry": {
        "type": "Point",
        "coordinates": [
          61.28318687828541,
          -20.516997143532702
        ]
      }
    },
    {
      "type": "Feature",
      "properties": {
        "norad_id": 61183,
        "name": "GSAT0226 (GALILEO 31)",
        "group": "galileo",
        "lat": -33.440264374838875,
        "lon": -161.05148480193733,
        "alt_km": 23229.101847029782,
        "timestamp": "2025-12-20T16:47:36.549938+00:00",
        "meta_object_name": "GSAT0226 (GALILEO 31)",
        "meta_object_id": "2024-167B",
        "meta_epoch": "2025-12-19T08:05:33.318816",
        "meta_mean_motion": 1.70473764,
        "meta_eccentricity": 0.0001078,
        "meta_inclination": 55.2375,
        "meta_ra_of_asc_node": 226.2553,
        "meta_arg_of_pericenter": 106.8002,
        "meta_mean_anomaly": 94.9592,
        "meta_ephemeris_type": 0,
        "meta_classification_type": "U",
        "meta_norad_cat_id": 61183,
        "meta_element_set_no": 999,
        "meta_rev_at_epoch": 778,
        "meta_bstar": 0,
        "meta_mean_motion_dot": 6.7e-07,
        "meta_mean_motion_ddot": 0,
        "tle_line1": "1 61183U 24167B   25353.33719119  .00000067  00000+0  00000+0 0  9992",
        "tle_line2": "2 61183  55.2375 226.2553 0001078 106.8002  94.9592  1.70473764  7785"
      },
      "geometry": {
        "type": "Point",
        "coordinates": [
          -161.05148480193733,
          -33.440264374838875
        ]
      }
    },
    {
      "type": "Feature",
      "properties": {
        "norad_id": 67160,
        "name": "GALILEO A",
        "group": "galileo",
        "lat": 24.35075065752348,
        "lon": -91.83533741854542,
        "alt_km": 22940.158513784932,
        "timestamp": "2025-12-20T16:47:36.549951+00:00",
        "meta_object_name": "GALILEO A",
        "meta_object_id": "2025-302A",
        "meta_epoch": "2025-12-18T03:30:19.486368",
        "meta_mean_motion": 1.72906186,
        "meta_eccentricity": 0.00084238,
        "meta_inclination": 54.2406,
        "meta_ra_of_asc_node": 107.2544,
        "meta_arg_of_pericenter": 237.6458,
        "meta_mean_anomaly": 122.2317,
        "meta_ephemeris_type": 0,
        "meta_classification_type": "U",
        "meta_norad_cat_id": 67160,
        "meta_element_set_no": 999,
        "meta_rev_at_epoch": 2,
        "meta_bstar": 0,
        "meta_mean_motion_dot": -7e-08,
        "meta_mean_motion_ddot": 0,
        "tle_line1": "1 67160U 25302A   25352.14605887 -.00000007  00000+0  00000+0 0  9994",
        "tle_line2": "2 67160  54.2406 107.2544 0008423 237.6458 122.2317  1.72906186    28"
      },
      "geometry": {
        "type": "Point",
        "coordinates": [
          -91.83533741854542,
          24.35075065752348
        ]
      }
    },
    {
      "type": "Feature",
      "properties": {
        "norad_id": 67161,
        "name": "GALILEO B",
        "group": "galileo",
        "lat": 23.688720578188136,
        "lon": -91.27113611098194,
        "alt_km": 22937.005407853118,
        "timestamp": "2025-12-20T16:47:36.549962+00:00",
        "meta_object_name": "GALILEO B",
        "meta_object_id": "2025-302B",
        "meta_epoch": "2025-12-19T07:14:53.290752",
        "meta_mean_motion": 1.72972192,
        "meta_eccentricity": 0.00045866,
        "meta_inclination": 54.2272,
        "meta_ra_of_asc_node": 107.1916,
        "meta_arg_of_pericenter": 255.0301,
        "meta_mean_anomaly": 104.8802,
        "meta_ephemeris_type": 0,
        "meta_classification_type": "U",
        "meta_norad_cat_id": 67161,
        "meta_element_set_no": 999,
        "meta_rev_at_epoch": 5,
        "meta_bstar": 0,
        "meta_mean_motion_dot": -5e-08,
        "meta_mean_motion_ddot": 0,
        "tle_line1": "1 67161U 25302B   25353.30200568 -.00000005  00000+0  00000+0 0  9999",
        "tle_line2": "2 67161  54.2272 107.1916 0004586 255.0301 104.8802  1.72972192    57"
      },
      "geometry": {
        "type": "Point",
        "coordinates": [
          -91.27113611098194,
          23.688720578188136
        ]
      }
    }
  ]
}